{
  "type": "FeatureCollection",
  "features": [
    {
      "type": "Feature",
      "properties": {
        "norad_id": 29894,
        "name": "FENGYUN 1C DEB",
        "group": "fengyun-1c-debris",
        "lat": -61.04662525167096,
        "lon": 50.85540229790736,
        "alt_km": 1042.5176894563583,
        "timestamp": "2025-12-04T23:34:05.994686+00:00",
        "meta_object_name": "FENGYUN 1C DEB",
        "meta_object_id": "1999-025GQ",
        "meta_epoch": "2025-12-04T15:53:31.463808",
        "meta_mean_motion": 13.80958855,
        "meta_eccentricity": 0.0168851,
        "meta_inclination": 99.4866,
        "meta_ra_of_asc_node": 32.9429,
        "meta_arg_of_pericenter": 66.3533,
        "meta_mean_anomaly": 83.4762,
        "meta_ephemeris_type": 0,
        "meta_classification_type": "U",
        "meta_norad_cat_id": 29894,
        "meta_element_set_no": 999,
        "meta_rev_at_epoch": 94965,
        "meta_bstar": 0.00086173,
        "meta_mean_motion_dot": 9.69e-06,
        "meta_mean_motion_ddot": 0,
        "tle_line1": "1 29894U 99025GQ  25338.66216972  .00000969  00000+0  86173-3 0  9998",
        "tle_line2": "2 29894  99.4866  32.9429 0168851  66.3533  83.4762 13.80958855949655"
      },
      "geometry": {
        "type": "Point",
        "coordinates": [
          50.85540229790736,
          -61.04662525167096
        ]
      }
    },
    {
      "type": "Feature",
      "properties": {
        "norad_id": 29895,
        "name": "FENGYUN 1C DEB",
        "group": "fengyun-1c-debris",
        "lat": -0.43580652651603397,
        "lon": 86.70237224940345,
        "alt_km": 652.5380798830747,
        "timestamp": "2025-12-04T23:34:05.994696+00:00",
        "meta_object_name": "FENGYUN 1C DEB",
        "meta_object_id": "1999-025GR",
        "meta_epoch": "2025-12-04T13:26:30.251040",
        "meta_mean_motion": 14.08121091,
        "meta_eccentricity": 0.0299588,
        "meta_inclination": 99.886,
        "meta_ra_of_asc_node": 86.1639,
        "meta_arg_of_pericenter": 6.1632,
        "meta_mean_anomaly": 16.0488,
        "meta_ephemeris_type": 0,
        "meta_classification_type": "U",
        "meta_norad_cat_id": 29895,
        "meta_element_set_no": 999,
        "meta_rev_at_epoch": 95409,
        "meta_bstar": 0.0035539,
        "meta_mean_motion_dot": 9.103e-05,
        "meta_mean_motion_ddot": 0,
        "tle_line1": "1 29895U 99025GR  25338.56007235  .00009103  00000+0  35539-2 0  9996",
        "tle_line2": "2 29895  99.8860  86.1639 0299588   6.1632  16.0488 14.08121091954098"
      },
      "geometry": {
        "type": "Point",
        "coordinates": [
          86.70237224940345,
          -0.43580652651603397
        ]
      }
    },
    {
      "type": "Feature",
      "properties": {
        "norad_id": 29896,
        "name": "FENGYUN 1C DEB",
        "group": "fengyun-1c-debris",
        "lat": -4.5689554064161735,
        "lon": 50.16521769489698,
        "alt_km": 935.0014759715486,
        "timestamp": "2025-12-04T23:34:05.994706+00:00",
        "meta_object_name": "FENGYUN 1C DEB",
        "meta_object_id": "1999-025GS",
        "meta_epoch": "2025-12-04T15:47:57.463872",
        "meta_mean_motion": 13.65353821,
        "meta_eccentricity": 0.0239407,
        "meta_inclination": 99.4225,
        "meta_ra_of_asc_node": 230.6109,
        "meta_arg_of_pericenter": 122.712,
        "meta_mean_anomaly": 269.098,
        "meta_ephemeris_type": 0,
        "meta_classification_type": "U",
        "meta_norad_cat_id": 29896,
        "meta_element_set_no": 999,
        "meta_rev_at_epoch": 93932,
        "meta_bstar": 0.00080077,
        "meta_mean_motion_dot": 7.51e-06,
        "meta_mean_motion_ddot": 0,
        "tle_line1": "1 29896U 99025GS  25338.65830398  .00000751  00000+0  80077-3 0  9999",
        "tle_line2": "2 29896  99.4225 230.6109 0239407 122.7120 269.0980 13.65353821939325"
      },
      "geometry": {
        "type": "Point",
        "coordinates": [
          50.16521769489698,
          -4.5689554064161735
        ]
      }
    },
    {
      "type": "Feature",
      "properties": {
        "norad_id": 29897,
        "name": "FENGYUN 1C DEB",
        "group": "fengyun-1c-debris",
        "lat": -28.340460732456247,
        "lon": -151.11428357626266,
        "alt_km": 1269.7376428019843,
        "timestamp": "2025-12-04T23:34:05.994717+00:00",
        "meta_object_name": "FENGYUN 1C DEB",
        "meta_object_id": "1999-025GT",
        "meta_epoch": "2025-12-03T02:27:55.814976",
        "meta_mean_motion": 13.57132747,
        "meta_eccentricity": 0.02963377,
        "meta_inclination": 98.6289,
        "meta_ra_of_asc_node": 202.5365,
        "meta_arg_of_pericenter": 164.0265,
        "meta_mean_anomaly": 350.1997,
        "meta_ephemeris_type": 0,
        "meta_classification_type": "U",
        "meta_norad_cat_id": 29897,
        "meta_element_set_no": 999,
        "meta_rev_at_epoch": 92809,
        "meta_bstar": 0.0022144693,
        "meta_mean_motion_dot": 2.062e-05,
        "meta_mean_motion_ddot": 0,
        "tle_line1": "1 29897U 99025GT  25337.10272934  .00002062  00000+0  22145-2 0  9993",
        "tle_line2": "2 29897  98.6289 202.5365 0296337 164.0265 350.1997 13.57132747928098"
      },
      "geometry": {
        "type": "Point",
        "coordinates": [
          -151.11428357626266,
          -28.340460732456247
        ]
      }
    },
    {
      "type": "Feature",
      "properties": {
        "norad_id": 29898,
        "name": "FENGYUN 1C DEB",
        "group": "fengyun-1c-debris",
        "lat": 11.98800576952495,
        "lon": -29.329997905222548,
        "alt_km": 1298.3905373320167,
        "timestamp": "2025-12-04T23:34:05.994727+00:00",
        "meta_object_name": "FENGYUN 1C DEB",
        "meta_object_id": "1999-025GU",
        "meta_epoch": "2025-12-03T11:28:25.889952",
        "meta_mean_motion": 13.70217466,
        "meta_eccentricity": 0.04274401,
        "meta_inclination": 98.2219,
        "meta_ra_of_asc_node": 331.1385,
        "meta_arg_of_pericenter": 214.3285,
        "meta_mean_anomaly": 301.7536,
        "meta_ephemeris_type": 0,
        "meta_classification_type": "U",
        "meta_norad_cat_id": 29898,
        "meta_element_set_no": 999,
        "meta_rev_at_epoch": 93034,
        "meta_bstar": 0.0028909838,
        "meta_mean_motion_dot": 4.834e-05,
        "meta_mean_motion_ddot": 0,
        "tle_line1": "1 29898U 99025GU  25337.47807743  .00004834  00000+0  28910-2 0  9991",
        "tle_line2": "2 29898  98.2219 331.1385 0427440 214.3285 301.7536 13.70217466930340"
      },
      "geometry": {
        "type": "Point",
        "coordinates": [
          -29.329997905222548,
          11.98800576952495
        ]
      }
    },
    {
      "type": "Feature",
      "properties": {
        "norad_id": 29899,
        "name": "FENGYUN 1C DEB",
        "group": "fengyun-1c-debris",
        "lat": -69.8555237007571,
        "lon": -68.92146521513304,
        "alt_km": 1360.7636479153116,
        "timestamp": "2025-12-04T23:34:05.994737+00:00",
        "meta_object_name": "FENGYUN 1C DEB",
        "meta_object_id": "1999-025GV",
        "meta_epoch": "2025-12-02T09:18:02.992896",
        "meta_mean_motion": 13.37487819,
        "meta_eccentricity": 0.03536515,
        "meta_inclination": 98.6612,
        "meta_ra_of_asc_node": 133.4158,
        "meta_arg_of_pericenter": 104.9635,
        "meta_mean_anomaly": 259.0924,
        "meta_ephemeris_type": 0,
        "meta_classification_type": "U",
        "meta_norad_cat_id": 29899,
        "meta_element_set_no": 999,
        "meta_rev_at_epoch": 91946,
        "meta_bstar": 0.00023856557,
        "meta_mean_motion_dot": 1.47e-06,
        "meta_mean_motion_ddot": 0,
        "tle_line1": "1 29899U 99025GV  25336.38753464  .00000147  00000+0  23857-3 0  9990",
        "tle_line2": "2 29899  98.6612 133.4158 0353651 104.9635 259.0924 13.37487819919468"
      },
      "geometry": {
        "type": "Point",
        "coordinates": [
          -68.92146521513304,
          -69.8555237007571
        ]
      }
    },
    {
      "type": "Feature",
      "properties": {
        "norad_id": 29901,
        "name": "FENGYUN 1C DEB",
        "group": "fengyun-1c-debris",
        "lat": -13.585878635983821,
        "lon": -31.206359342619386,
        "alt_km": 1231.7601853964925,
        "timestamp": "2025-12-04T23:34:05.994748+00:00",
        "meta_object_name": "FENGYUN 1C DEB",
        "meta_object_id": "1999-025GX",
        "meta_epoch": "2025-12-04T01:35:04.725024",
        "meta_mean_motion": 13.33246244,
        "meta_eccentricity": 0.03792748,
        "meta_inclination": 98.7446,
        "meta_ra_of_asc_node": 150.1417,
        "meta_arg_of_pericenter": 306.9702,
        "meta_mean_anomaly": 176.5948,
        "meta_ephemeris_type": 0,
        "meta_classification_type": "U",
        "meta_norad_cat_id": 29901,
        "meta_element_set_no": 999,
        "meta_rev_at_epoch": 91803,
        "meta_bstar": 0.00059893023,
        "meta_mean_motion_dot": 4.02e-06,
        "meta_mean_motion_ddot": 0,
        "tle_line1": "1 29901U 99025GX  25338.06602691  .00000402  00000+0  59893-3 0  9999",
        "tle_line2": "2 29901  98.7446 150.1417 0379274 306.9702 176.5948 13.33246244918032"
      },
      "geometry": {
        "type": "Point",
        "coordinates": [
          -31.206359342619386,
          -13.585878635983821
        ]
      }
    }
  ]
}